{
  "type": "FeatureCollection",
  "features": [
    {
      "type": "Feature",
      "id": "node/427973657",
      "properties": {
        "name": "五反田",
        "name:en": "Gotanda",
        "name:it": "Gotanda",
        "name:ja": "五反田",
        "name:ja-Hira": "ごたんだ",
        "name:ja-Latn": "Gotanda",
        "name:ko": "고탄다",
        "name:ru": "Готанда",
        "name:th": "โกทันดะ",
        "operator": "東日本旅客鉄道",
        "public_transport": "station",
        "railway": "station",
        "ref": "JY23",
        "toilets:wheelchair": "yes",
        "train": "yes",
        "website": "https://www.jreast.co.jp/estation/station/info.aspx?StationCd=695",
        "wheelchair": "yes",
        "wikidata": "Q736018",
        "wikipedia": "ja:五反田駅",
        "id": "node/427973657"
      },
      "geometry": {
        "type": "Point",
        "coordinates": [
          139.7236813,
          35.6261984
        ]
      }
    },
    {
      "type": "Feature",
      "id": "node/7791591079",
      "properties": {
        "name": "高輪台",
        "name:en": "Takanawadai",
        "name:es": "Takanawadai",
        "name:ja": "高輪台",
        "name:ja_kana": "たかなわだい",
        "name:ja_rm": "Takanawadai",
        "name:ko": "다카나와다이",
        "name:ru": "Таканавадай",
        "network": "都営地下鉄",
        "network:en": "Toei subway",
        "operator": "東京都交通局",
        "operator:en": "Toei",
        "operator:wikidata": "Q1377135",
        "public_transport": "station",
        "railway": "station",
        "ref": "A06",
        "station": "subway",
        "subway": "yes",
        "wikidata": "Q1040769",
        "wikipedia": "ja:高輪台駅",
        "id": "node/7791591079"
      },
      "geometry": {
        "type": "Point",
        "coordinates": [
          139.7304256,
          35.6317345
        ]
      }
    },
    {
      "type": "Feature",
      "id": "node/7791605888",
      "properties": {
        "name": "五反田",
        "name:en": "Gotanda",
        "name:ja": "五反田",
        "name:ja_kana": "ごたんだ",
        "name:ja_rm": "Gotanda",
        "name:ko": "고탄다",
        "name:ru": "Готанда",
        "network": "都営地下鉄",
        "network:en": "Toei subway",
        "operator": "東京都交通局",
        "operator:en": "Toei",
        "operator:wikidata": "Q1377135",
        "public_transport": "station",
        "railway": "station",
        "ref": "A05",
        "station": "subway",
        "subway": "yes",
        "website": "https://www.kotsu.metro.tokyo.jp/subway/stations/gotanda.html",
        "wheelchair": "yes",
        "wikidata": "Q736018",
        "wikipedia": "ja:五反田駅",
        "id": "node/7791605888"
      },
      "geometry": {
        "type": "Point",
        "coordinates": [
          139.7242066,
          35.6270878
        ]
      }
    },
    {
      "type": "Feature",
      "id": "node/7899349372",
      "properties": {
        "name": "五反田",
        "name:en": "Gotanda",
        "name:es": "Gotanda",
        "name:ja": "五反田",
        "name:ja_kana": "ごたんだ",
        "name:ja_rm": "Gotanda",
        "name:ko": "고탄다",
        "name:ru": "Готанда",
        "operator": "東急電鉄",
        "public_transport": "station",
        "railway": "station",
        "ref": "IK01",
        "toilets:wheelchair": "yes",
        "train": "yes",
        "wheelchair": "yes",
        "wikidata": "Q736018",
        "wikipedia": "ja:五反田駅",
        "id": "node/7899349372"
      },
      "geometry": {
        "type": "Point",
        "coordinates": [
          139.7241399,
          35.6251373
        ]
      }
    }
  ]
}